[ {"spaceTrack": {"CCSDS_OMM_VERS": "2.0", "COMMENT": "GENERATED VIA SPACE-TRACK.ORG API", "CREATION_DATE": "2020-08-23 22:26:09", "ORIGINATOR": "18 SPCS", "OBJECT_NAME": "STARLINK-78", "OBJECT_ID": "2019-029BH", "CENTER_NAME": "EARTH", "REF_FRAME": "TEME", "TIME_SYSTEM": "UTC", "MEAN_ELEMENT_THEORY": "SGP4", "EPOCH": "2020-08-23 22:00:00.999936", "MEAN_MOTION": 16.09172142, "ECCENTRICITY": 0.000157, "INCLINATION": 53.0068, "RA_OF_ASC_NODE": 236.7301, "ARG_OF_PERICENTER": 34.3263, "MEAN_ANOMALY": 274.0927, "EPHEMERIS_TYPE": 0, "CLASSIFICATION_TYPE": "U", "NORAD_CAT_ID": 44290, "ELEMENT_SET_NO": 999, "REV_AT_EPOCH": 7075, "BSTAR": -1.5763e-05, "MEAN_MOTION_DOT": -0.00018173, "MEAN_MOTION_DDOT": 1.1625e-05, "SEMIMAJOR_AXIS": 6627.252, "PERIOD": 89.487, "APOAPSIS": 250.157, "PERIAPSIS": 248.076, "OBJECT_TYPE": "PAYLOAD", "RCS_SIZE": "LARGE", "COUNTRY_CODE": "US", "LAUNCH_DATE": "2019-05-24", "SITE": "AFETR", "DECAY_DATE": null, "DECAYED": 0, "FILE": 2807235, "GP_ID": 159985131, "TLE_LINE0": "0 STARLINK-78", "TLE_LINE1": "1 44290U 19029BH  20236.91667824 -.00018173  11625-4 -15763-4 0  9993", "TLE_LINE2": "2 44290  53.0068 236.7301 0001570  34.3263 274.0927 16.09172142 70752"}, "version": "v0.9", "launch": "5eb87d30ffd86e000604b378", "longitude": -108.50816967870644, "latitude": -22.847416564330462, "height_km": 255.1537555140585, "velocity_kms": 7.754194453010801, "id": "5eed7714096e59000698564c"}, {"spaceTrack": {"CCSDS_OMM_VERS": "2.0", "COMMENT": "GENERATED VIA SPACE-TRACK.ORG API", "CREATION_DATE": "2020-08-23 22:36:09", "ORIGINATOR": "18 SPCS", "OBJECT_NAME": "STARLINK-1016", "OBJECT_ID": "2019-074K", "CENTER_NAME": "EARTH", "REF_FRAME": "TEME", "TIME_SYSTEM": "UTC", "MEAN_ELEMENT_THEORY": "SGP4", "EPOCH": "2020-08-23 12:31:21.507744", "MEAN_MOTION": 15.05556918, "ECCENTRICITY": 7.02e-05, "INCLINATION": 52.9997, "RA_OF_ASC_NODE": 273.4542, "ARG_OF_PERICENTER": 76.2645, "MEAN_ANOMALY": 283.8421, "EPHEMERIS_TYPE": 0, "CLASSIFICATION_TYPE": "U", "NORAD_CAT_ID": 44722, "ELEMENT_SET_NO": 999, "REV_AT_EPOCH": 4384, "BSTAR": 0.00010613, "MEAN_MOTION_DOT": 1.267e-05, "MEAN_MOTION_DDOT": 0, "SEMIMAJOR_AXIS": 6927.933, "PERIOD": 95.645, "APOAPSIS": 550.285, "PERIAPSIS": 549.312, "OBJECT_TYPE": "PAYLOAD", "RCS_SIZE": "LARGE", "COUNTRY_CODE": "US", "LAUNCH_DATE": "2019-11-11", "SITE": "AFETR", "DECAY_DATE": null, "DECAYED": 0, "FILE": 2807273, "GP_ID": 159986532, "TLE_LINE0": "0 STARLINK-1016", "TLE_LINE1": "1 44722U 19074K   20236.52177671  .00001267  00000-0  10613-3 0  9999", "TLE_LINE2": "2 44722  52.9997 273.4542 0000702  76.2645 283.8421 15.05556918 43840"}, "version": "v1.0", "launch": "5eb87d39ffd86e000604b37d", "longitude": -67.68218184397983, "latitude": -16.195659177393996, "height_km": 554.2067271869346, "velocity_kms": 7.584854010436178, "id": "5eed7714096e59000698564d"}, {"spaceTrack": {"CCSDS_OMM_VERS": "2.0", "COMMENT": "GENERATED VIA SPACE-TRACK.ORG API", "CREATION_DATE": "2020-08-23 22:46:10", "ORIGINATOR": "18 SPCS", "OBJECT_NAME": "STARLINK-1011", "OBJECT_ID": "2019-074E", "CENTER_NAME": "EARTH", "REF_FRAME": "TEME", "TIME_SYSTEM": "UTC", "MEAN_ELEMENT_THEORY": "SGP4", "EPOCH": "2020-08-23 22:00:00.999936", "MEAN_MOTION": 15.05579516, "ECCENTRICITY": 0.0001249, "INCLINATION": 52.9985, "RA_OF_ASC_NODE": 291.6884, "ARG_OF_PERICENTER": 119.9708, "MEAN_ANOMALY": 129.6607, "EPHEMERIS_TYPE": 0, "CLASSIFICATION_TYPE": "U", "NORAD_CAT_ID": 44717, "ELEMENT_SET_NO": 999, "REV_AT_EPOCH": 4362, "BSTAR": -0.00013171, "MEAN_MOTION_DOT": -2.198e-05, "MEAN_MOTION_DDOT": 0, "SEMIMAJOR_AXIS": 6927.864, "PERIOD": 95.644, "APOAPSIS": 550.594, "PERIAPSIS": 548.864, "OBJECT_TYPE": "PAYLOAD", "RCS_SIZE": "LARGE", "COUNTRY_CODE": "US", "LAUNCH_DATE": "2019-11-11", "SITE": "AFETR", "DECAY_DATE": null, "DECAYED": 0, "FILE": 2807306, "GP_ID": 159986942, "TLE_LINE0": "0 STARLINK-1011", "TLE_LINE1": "1 44717U 19074E   20236.91667824 -.00002198  00000-0 -13171-3 0  9998", "TLE_LINE2": "2 44717  52.9985 291.6884 0001249 119.9708 129.6607 15.05579516 43622"}, "version": "v1.0", "launch": "5eb87d39ffd86e000604b37d", "longitude": -159.23520577179042, "latitude": -47.8407304217133, "height_km": 566.6177619212731, "velocity_kms": 7.577341158221342, "id": "5eed7714096e59000698564e"}, {"spaceTrack": {"CCSDS_OMM_VERS": "2.0", "COMMENT": "GENERATED VIA SPACE-TRACK.ORG API", "CREATION_DATE": "2020-08-23 22:36:09", "ORIGINATOR": "18 SPCS", "OBJECT_NAME": "STARLINK-1015", "OBJECT_ID": "2019-074J", "CENTER_NAME": "EARTH", "REF_FRAME": "TEME", "TIME_SYSTEM": "UTC", "MEAN_ELEMENT_THEORY": "SGP4", "EPOCH": "2020-08-23 22:00:00.999936", "MEAN_MOTION": 15.05552903, "ECCENTRICITY": 8.27e-05, "INCLINATION": 52.9996, "RA_OF_ASC_NODE": 271.6873, "ARG_OF_PERICENTER": 104.2004, "MEAN_ANOMALY": 255.543, "EPHEMERIS_TYPE": 0, "CLASSIFICATION_TYPE": "U", "NORAD_CAT_ID": 44721, "ELEMENT_SET_NO": 999, "REV_AT_EPOCH": 4389, "BSTAR": 0.002069, "MEAN_MOTION_DOT": 0.00029972, "MEAN_MOTION_DDOT": 0, "SEMIMAJOR_AXIS": 6927.946, "PERIOD": 95.645, "APOAPSIS": 550.383, "PERIAPSIS": 549.238, "OBJECT_TYPE": "PAYLOAD", "RCS_SIZE": "LARGE", "COUNTRY_CODE": "US", "LAUNCH_DATE": "2019-11-11", "SITE": "AFETR", "DECAY_DATE": null, "DECAYED": 0, "FILE": 2807273, "GP_ID": 159986529, "TLE_LINE0": "0 STARLINK-1015", "TLE_LINE1": "1 44721U 19074J   20236.91667824  .00029972  00000-0  20690-2 0  9993", "TLE_LINE2": "2 44721  52.9996 271.6873 0000827 104.2004 255.5430 15.05552903 43895"}, "version": "v1.0", "launch": "5eb87d39ffd86e000604b37d", "longitude": -56.46180135415575, "latitude": -1.8115409908075217, "height_km": 551.0836801981486, "velocity_kms": 7.587284149756539, "id": "5eed7714096e59000698564f"}, {"spaceTrack": {"CCSDS_OMM_VERS": "2.0", "COMMENT": "GENERATED VIA SPACE-TRACK.ORG API", "CREATION_DATE": "2020-08-23 22:36:09", "ORIGINATOR": "18 SPCS", "OBJECT_NAME": "STARLINK-1017", "OBJECT_ID": "2019-074L", "CENTER_NAME": "EARTH", "REF_FRAME": "TEME", "TIME_SYSTEM": "UTC", "MEAN_ELEMENT_THEORY": "SGP4", "EPOCH": "2020-08-23 22:00:00.999936", "MEAN_MOTION": 15.05573109, "ECCENTRICITY": 8.71e-05, "INCLINATION": 52.9989, "RA_OF_ASC_NODE": 271.6883, "ARG_OF_PERICENTER": 96.5738, "MEAN_ANOMALY": 173.1841, "EPHEMERIS_TYPE": 0, "CLASSIFICATION_TYPE": "U", "NORAD_CAT_ID": 44723, "ELEMENT_SET_NO": 999, "REV_AT_EPOCH": 4390, "BSTAR": 0.001974, "MEAN_MOTION_DOT": 0.00028593, "MEAN_MOTION_DDOT": 0, "SEMIMAJOR_AXIS": 6927.884, "PERIOD": 95.644, "APOAPSIS": 550.352, "PERIAPSIS": 549.145, "OBJECT_TYPE": "PAYLOAD", "RCS_SIZE": "LARGE", "COUNTRY_CODE": "US", "LAUNCH_DATE": "2019-11-11", "SITE": "AFETR", "DECAY_DATE": null, "DECAYED": 0, "FILE": 2807283, "GP_ID": 159986694, "TLE_LINE0": "0 STARLINK-1017", "TLE_LINE1": "1 44723U 19074L   20236.91667824  .00028593  00000-0  19740-2 0  9997", "TLE_LINE2": "2 44723  52.9989 271.6883 0000871  96.5738 173.1841 15.05573109 43900"}, "version": "v1.0", "launch": "5eb87d39ffd86e000604b37d", "longitude": -148.6236699128367, "latitude": -53.09768034377599, "height_km": 568.7714868155363, "velocity_kms": 7.576155367535181, "id": "5eed7714096e590006985650"}, {"spaceTrack": {"CCSDS_OMM_VERS": "2.0", "COMMENT": "GENERATED VIA SPACE-TRACK.ORG API", "CREATION_DATE": "2020-08-23 22:36:09", "ORIGINATOR": "18 SPCS", "OBJECT_NAME": "STARLINK-1013", "OBJECT_ID": "2019-074G", "CENTER_NAME": "EARTH", "REF_FRAME": "TEME", "TIME_SYSTEM": "UTC", "MEAN_ELEMENT_THEORY": "SGP4", "EPOCH": "2020-08-23 22:00:00.999936", "MEAN_MOTION": 15.05574287, "ECCENTRICITY": 5.62e-05, "INCLINATION": 52.9984, "RA_OF_ASC_NODE": 271.6875, "ARG_OF_PERICENTER": 112.9566, "MEAN_ANOMALY": 282.8085, "EPHEMERIS_TYPE": 0, "CLASSIFICATION_TYPE": "U", "NORAD_CAT_ID": 44719, "ELEMENT_SET_NO": 999, "REV_AT_EPOCH": 4389, "BSTAR": 0.0019933, "MEAN_MOTION_DOT": 0.00028878, "MEAN_MOTION_DDOT": 0, "SEMIMAJOR_AXIS": 6927.88, "PERIOD": 95.644, "APOAPSIS": 550.134, "PERIAPSIS": 549.356, "OBJECT_TYPE": "PAYLOAD", "RCS_SIZE": "LARGE", "COUNTRY_CODE": "US", "LAUNCH_DATE": "2019-11-11", "SITE": "AFETR", "DECAY_DATE": null, "DECAYED": 0, "FILE": 2807273, "GP_ID": 159986023, "TLE_LINE0": "0 STARLINK-1013", "TLE_LINE1": "1 44719U 19074G   20236.91667824  .00028878  00000-0  19933-2 0  9992", "TLE_LINE2": "2 44719  52.9984 271.6875 0000562 112.9566 282.8085 15.05574287 43894"}, "version": "v1.0", "launch": "5eb87d39ffd86e000604b37d", "longitude": -33.154467302583015, "latitude": 26.506596299384373, "height_km": 550.8249282484858, "velocity_kms": 7.5900966772630785, "id": "5eed7714096e590006985651"}, {"spaceTrack": {"CCSDS_OMM_VERS": "2.0", "COMMENT": "GENERATED VIA SPACE-TRACK.ORG API", "CREATION_DATE": "2020-08-23 22:36:09", "ORIGINATOR": "18 SPCS", "OBJECT_NAME": "STARLINK-1019", "OBJECT_ID": "2019-074M", "CENTER_NAME": "EARTH", "REF_FRAME": "TEME", "TIME_SYSTEM": "UTC", "MEAN_ELEMENT_THEORY": "SGP4", "EPOCH": "2020-08-23 22:00:00.999936", "MEAN_MOTION": 15.05593953, "ECCENTRICITY": 8.14e-05, "INCLINATION": 52.9978, "RA_OF_ASC_NODE": 271.6864, "ARG_OF_PERICENTER": 105.6528, "MEAN_ANOMALY": 2.1175, "EPHEMERIS_TYPE": 0, "CLASSIFICATION_TYPE": "U", "NORAD_CAT_ID": 44724, "ELEMENT_SET_NO": 999, "REV_AT_EPOCH": 4389, "BSTAR": 0.00016734, "MEAN_MOTION_DOT": 2.161e-05, "MEAN_MOTION_DDOT": 0, "SEMIMAJOR_AXIS": 6927.82, "PERIOD": 95.643, "APOAPSIS": 550.249, "PERIAPSIS": 549.121, "OBJECT_TYPE": "PAYLOAD", "RCS_SIZE": "LARGE", "COUNTRY_CODE": "US", "LAUNCH_DATE": "2019-11-11", "SITE": "AFETR", "DECAY_DATE": null, "DECAYED": 0, "FILE": 2807275, "GP_ID": 159986533, "TLE_LINE0": "0 STARLINK-1019", "TLE_LINE1": "1 44724U 19074M   20236.91667824  .00002161  00000-0  16734-3 0  9992", "TLE_LINE2": "2 44724  52.9978 271.6864 0000814 105.6528   2.1175 15.05593953 43892"}, "version": "v1.0", "launch": "5eb87d39ffd86e000604b37d", "longitude": 60.27712097151028, "latitude": 50.32166256418803, "height_km": 555.0192076033991, "velocity_kms": 7.590572131734908, "id": "5eed7714096e590006985652"}]